{"type": "FeatureCollection", "features": [ {"type": "Feature", "properties": {"norad_id": 31985, "name": "FENGYUN 1C DEB", "group": "fengyun-1c-debris", "lat": -56.168623227186806, "lon": -87.85349297195283, "alt_km": 827.0002157866811, "timestamp": "2025-12-25T07:00:34.333759+00:00", "meta": {"OBJECT_NAME": "FENGYUN 1C DEB", "OBJECT_ID": "1999-025CPN", "EPOCH": "2025-12-23T13:05:30.625440", "MEAN_MOTION": 14.22990386, "ECCENTRICITY": 0.01508831, "INCLINATION": 98.2195, "RA_OF_ASC_NODE": 258.061, "ARG_OF_PERICENTER": 214.7786, "MEAN_ANOMALY": 144.346, "EPHEMERIS_TYPE": 0, "CLASSIFICATION_TYPE": "U", "NORAD_CAT_ID": 31985, "ELEMENT_SET_NO": 999, "REV_AT_EPOCH": 95764, "BSTAR": 0.00026019142, "MEAN_MOTION_DOT": 6.17e-06, "MEAN_MOTION_DDOT": 0}, "tle": {"line1": "1 31985U 99025CPN 25357.54549335  .00000617  00000+0  26019-3 0  9995", "line2": "2 31985  98.2195 258.0610 0150883 214.7786 144.3460 14.22990386957641"}}, "geometry": {"type": "Point", "coordinates": [-87.85349297195283, -56.168623227186806]}}, {"type": "Feature", "properties": {"norad_id": 31987, "name": "FENGYUN 1C DEB", "group": "fengyun-1c-debris", "lat": -3.9623697575523273, "lon": -25.67516208131795, "alt_km": 766.1912553567818, "timestamp": "2025-12-25T07:00:34.333769+00:00", "meta": {"OBJECT_NAME": "FENGYUN 1C DEB", "OBJECT_ID": "1999-025CPQ", "EPOCH": "2025-12-24T21:11:48.640704", "MEAN_MOTION": 14.44986343, "ECCENTRICITY": 0.00521086, "INCLINATION": 99.0406, "RA_OF_ASC_NODE": 333.2581, "ARG_OF_PERICENTER": 121.4546, "MEAN_ANOMALY": 269.479, "EPHEMERIS_TYPE": 0, "CLASSIFICATION_TYPE": "U", "NORAD_CAT_ID": 31987, "ELEMENT_SET_NO": 999, "REV_AT_EPOCH": 96545, "BSTAR": 0.0010158199, "MEAN_MOTION_DOT": 3.554e-05, "MEAN_MOTION_DDOT": 0}, "tle": {"line1": "1 31987U 99025CPQ 25358.88320186  .00003554  00000+0  10158-2 0  9995", "line2": "2 31987  99.0406 333.2581 0052108 121.4546 269.4790 14.44986343965454"}}, "geometry": {"type": "Point", "coordinates": [-25.67516208131795, -3.9623697575523273]}}, {"type": "Feature", "properties": {"norad_id": 31989, "name": "FENGYUN 1C DEB", "group": "fengyun-1c-debris", "lat": 44.36806313250406, "lon": -110.46989619266492, "alt_km": 965.6873431326612, "timestamp": "2025-12-25T07:00:34.333780+00:00", "meta": {"OBJECT_NAME": "FENGYUN 1C DEB", "OBJECT_ID": "1999-025CPS", "EPOCH": "2025-12-24T09:59:02.280768", "MEAN_MOTION": 13.93605724, "ECCENTRICITY": 0.01154086, "INCLINATION": 99.2115, "RA_OF_ASC_NODE": 59.5243, "ARG_OF_PERICENTER": 267.1685, "MEAN_ANOMALY": 155.8429, "EPHEMERIS_TYPE": 0, "CLASSIFICATION_TYPE": "U", "NORAD_CAT_ID": 31989, "ELEMENT_SET_NO": 999, "REV_AT_EPOCH": 93880, "BSTAR": 0.00057348389, "MEAN_MOTION_DOT": 7.5e-06, "MEAN_MOTION_DDOT": 0}, "tle": {"line1": "1 31989U 99025CPS 25358.41599862  .00000750  00000+0  57348-3 0  9993", "line2": "2 31989  99.2115  59.5243 0115408 267.1685 155.8429 13.93605724938803"}}, "geometry": {"type": "Point", "coordinates": [-110.46989619266492, 44.36806313250406]}}, {"type": "Feature", "properties": {"norad_id": 31990, "name": "FENGYUN 1C DEB", "group": "fengyun-1c-debris", "lat": 27.213100091165845, "lon": 16.172496266368448, "alt_km": 1151.4516665785377, "timestamp": "2025-12-25T07:00:34.333791+00:00", "meta": {"OBJECT_NAME": "FENGYUN 1C DEB", "OBJECT_ID": "1999-025CPT", "EPOCH": "2025-12-22T08:11:24.407808", "MEAN_MOTION": 13.5720727, "ECCENTRICITY": 0.02604471, "INCLINATION": 99.1597, "RA_OF_ASC_NODE": 18.1807, "ARG_OF_PERICENTER": 160.0057, "MEAN_ANOMALY": 220.2158, "EPHEMERIS_TYPE": 0, "CLASSIFICATION_TYPE": "U", "NORAD_CAT_ID": 31990, "ELEMENT_SET_NO": 999, "REV_AT_EPOCH": 62902, "BSTAR": 0.00026124298, "MEAN_MOTION_DOT": 1.93e-06, "MEAN_MOTION_DDOT": 0}, "tle": {"line1": "1 31990U 99025CPT 25356.34125472  .00000193  00000+0  26124-3 0  9996", "line2": "2 31990  99.1597  18.1807 0260447 160.0057 220.2158 13.57207270629024"}}, "geometry": {"type": "Point", "coordinates": [16.172496266368448, 27.213100091165845]}}, {"type": "Feature", "properties": {"norad_id": 31991, "name": "FENGYUN 1C DEB", "group": "fengyun-1c-debris", "lat": -52.80650561592388, "lon": -4.924927741934909, "alt_km": 1190.963250157516, "timestamp": "2025-12-25T07:00:34.333802+00:00", "meta": {"OBJECT_NAME": "FENGYUN 1C DEB", "OBJECT_ID": "1999-025CPU", "EPOCH": "2025-12-22T17:53:19.962816", "MEAN_MOTION": 13.61281478, "ECCENTRICITY": 0.02444249, "INCLINATION": 100.486, "RA_OF_ASC_NODE": 186.4677, "ARG_OF_PERICENTER": 28.7327, "MEAN_ANOMALY": 332.7029, "EPHEMERIS_TYPE": 0, "CLASSIFICATION_TYPE": "U", "NORAD_CAT_ID": 31991, "ELEMENT_SET_NO": 999, "REV_AT_EPOCH": 62223, "BSTAR": 0.00015589041, "MEAN_MOTION_DOT": 9.4e-07, "MEAN_MOTION_DDOT": 0}, "tle": {"line1": "1 31991U 99025CPU 25356.74536994  .00000094  00000+0  15589-3 0  9999", "line2": "2 31991 100.4860 186.4677 0244424  28.7327 332.7029 13.61281478622234"}}, "geometry": {"type": "Point", "coordinates": [-4.924927741934909, -52.80650561592388]}}, {"type": "Feature", "properties": {"norad_id": 31992, "name": "FENGYUN 1C DEB", "group": "fengyun-1c-debris", "lat": -9.587037137771906, "lon": 136.13568451646742, "alt_km": 1579.289590030833, "timestamp": "2025-12-25T07:00:34.333812+00:00", "meta": {"OBJECT_NAME": "FENGYUN 1C DEB", "OBJECT_ID": "1999-025CPV", "EPOCH": "2025-12-22T03:38:18.593376", "MEAN_MOTION": 13.23012491, "ECCENTRICITY": 0.05423471, "INCLINATION": 99.1671, "RA_OF_ASC_NODE": 314.9253, "ARG_OF_PERICENTER": 6.8292, "MEAN_ANOMALY": 353.9851, "EPHEMERIS_TYPE": 0, "CLASSIFICATION_TYPE": "U", "NORAD_CAT_ID": 31992, "ELEMENT_SET_NO": 999, "REV_AT_EPOCH": 53999, "BSTAR": 0.0012055765, "MEAN_MOTION_DOT": 1.073e-05, "MEAN_MOTION_DDOT": 0}, "tle": {"line1": "1 31992U 99025CPV 25356.15160409  .00001073  00000+0  12056-2 0  9992", "line2": "2 31992  99.1671 314.9253 0542347   6.8292 353.9851 13.23012491539993"}}, "geometry": {"type": "Point", "coordinates": [136.13568451646742, -9.587037137771906]}}, {"type": "Feature", "properties": {"norad_id": 31993, "name": "FENGYUN 1C DEB", "group": "fengyun-1c-debris", "lat": 63.4192252719243, "lon": -48.746029272535644, "alt_km": 898.6585236570709, "timestamp": "2025-12-25T07:00:34.333823+00:00", "meta": {"OBJECT_NAME": "FENGYUN 1C DEB", "OBJECT_ID": "1999-025CPW", "EPOCH": "2025-12-24T16:13:16.260096", "MEAN_MOTION": 13.27487792, "ECCENTRICITY": 0.04232112, "INCLINATION": 99.2398, "RA_OF_ASC_NODE": 329.6876, "ARG_OF_PERICENTER": 106.0235, "MEAN_ANOMALY": 258.7919, "EPHEMERIS_TYPE": 0, "CLASSIFICATION_TYPE": "U", "NORAD_CAT_ID": 31993, "ELEMENT_SET_NO": 999, "REV_AT_EPOCH": 89101, "BSTAR": 0.0023117647, "MEAN_MOTION_DOT": 1.659e-05, "MEAN_MOTION_DDOT": 0}, "tle": {"line1": "1 31993U 99025CPW 25358.67588264  .00001659  00000+0  23118-2 0  9996", "line2": "2 31993  99.2398 329.6876 0423211 106.0235 258.7919 13.27487792891018"}}, "geometry": {"type": "Point", "coordinates": [-48.746029272535644, 63.4192252719243]}}, {"type": "Feature", "properties": {"norad_id": 31994, "name": "FENGYUN 1C DEB", "group": "fengyun-1c-debris", "lat": 70.86635447336772, "lon": -161.78094365755206, "alt_km": 783.4872961443943, "timestamp": "2025-12-25T07:00:34.333834+00:00", "meta": {"OBJECT_NAME": "FENGYUN 1C DEB", "OBJECT_ID": "1999-025CPX", "EPOCH": "2025-12-18T05:54:00.814464", "MEAN_MOTION": 13.95758705, "ECCENTRICITY": 0.01625274, "INCLINATION": 98.539, "RA_OF_ASC_NODE": 346.0233, "ARG_OF_PERICENTER": 130.8306, "MEAN_ANOMALY": 230.708, "EPHEMERIS_TYPE": 0, "CLASSIFICATION_TYPE": "U", "NORAD_CAT_ID": 31994, "ELEMENT_SET_NO": 999, "REV_AT_EPOCH": 56873, "BSTAR": -7.0824309e-05, "MEAN_MOTION_DOT": -1.46e-06, "MEAN_MOTION_DDOT": 0}, "tle": {"line1": "1 31994U 99025CPX 25352.24584276 -.00000146  00000+0 -70824-4 0  9993", "line2": "2 31994  98.5390 346.0233 0162527 130.8306 230.7080 13.95758705568736"}}, "geometry": {"type": "Point", "coordinates": [-161.78094365755206, 70.86635447336772]}}, {"type": "Feature", "properties": {"norad_id": 31997, "name": "FENGYUN 1C DEB", "group": "fengyun-1c-debris", "lat": -57.35168655949581, "lon": 66.53869952494733, "alt_km": 912.0198414537872, "timestamp": "2025-12-25T07:00:34.333844+00:00", "meta": {"OBJECT_NAME": "FENGYUN 1C DEB", "OBJECT_ID": "1999-025CQA", "EPOCH": "2025-12-20T23:11:18.732192", "MEAN_MOTION": 13.60709267, "ECCENTRICITY": 0.02907852, "INCLINATION": 102.5098, "RA_OF_ASC_NODE": 40.7426, "ARG_OF_PERICENTER": 255.2897, "MEAN_ANOMALY": 101.584, "EPHEMERIS_TYPE": 0, "CLASSIFICATION_TYPE": "U", "NORAD_CAT_ID": 31997, "ELEMENT_SET_NO": 999, "REV_AT_EPOCH": 61795, "BSTAR": 0.0020865272, "MEAN_MOTION_DOT": 2.017e-05, "MEAN_MOTION_DDOT": 0}, "tle": {"line1": "1 31997U 99025CQA 25354.96618903  .00002017  00000+0  20865-2 0  9997", "line2": "2 31997 102.5098  40.7426 0290785 255.2897 101.5840 13.60709267617956"}}, "geometry": {"type": "Point", "coordinates": [66.53869952494733, -57.35168655949581]}}, {"type": "Feature", "properties": {"norad_id": 32086, "name": "FENGYUN 1C DEB", "group": "fengyun-1c-debris", "lat": -16.12754416737025, "lon": -128.96841422330425, "alt_km": 1013.8430419427941, "timestamp": "2025-12-25T07:00:34.333855+00:00", "meta": {"OBJECT_NAME": "FENGYUN 1C DEB", "OBJECT_ID": "1999-025CQC", "EPOCH": "2025-12-23T20:45:31.853664", "MEAN_MOTION": 13.68944984, "ECCENTRICITY": 0.029869, "INCLINATION": 99.2686, "RA_OF_ASC_NODE": 52.364, "ARG_OF_PERICENTER": 106.7235, "MEAN_ANOMALY": 256.6913, "EPHEMERIS_TYPE": 0, "CLASSIFICATION_TYPE": "U", "NORAD_CAT_ID": 32086, "ELEMENT_SET_NO": 999, "REV_AT_EPOCH": 61933, "BSTAR": 0.0021459, "MEAN_MOTION_DOT": 2.491e-05, "MEAN_MOTION_DDOT": 0}, "tle": {"line1": "1 32086U 99025CQC 25357.86495201  .00002491  00000+0  21459-2 0  9999", "line2": "2 32086  99.2686  52.3640 0298690 106.7235 256.6913 13.68944984619339"}}, "geometry": {"type": "Point", "coordinates": [-128.96841422330425, -16.12754416737025]}}]}